[Satellite]
VERSION=1.1
NAME=JCSAT-13
NICKNAME=JCSAT-13
TLE1=1 38331U 12023A   17185.86934650 -.00000362  00000-0  00000-0 0  9991
TLE2=2 38331   0.0202 310.8751 0002226 169.1986 239.9407  1.00271912 18793
